{
  "type": "FeatureCollection",
  "features": [
    {
      "type": "Feature",
      "properties": {
        "norad_id": 66387,
        "name": "STARLINK-35661",
        "group": "last-30-days",
        "lat": 43.29518837410221,
        "lon": 55.256486374966215,
        "alt_km": 440.80405062285536,
        "timestamp": "2025-12-09T09:46:46.420314+00:00",
        "meta_object_name": "STARLINK-35661",
        "meta_object_id": "2025-257H",
        "meta_epoch": "2025-12-09T03:01:29.608032",
        "meta_mean_motion": 15.39623681,
        "meta_eccentricity": 0.0001038,
        "meta_inclination": 53.1594,
        "meta_ra_of_asc_node": 281.5253,
        "meta_arg_of_pericenter": 87.1065,
        "meta_mean_anomaly": 273.0059,
        "meta_ephemeris_type": 0,
        "meta_classification_type": "U",
        "meta_norad_cat_id": 66387,
        "meta_element_set_no": 999,
        "meta_rev_at_epoch": 581,
        "meta_bstar": 0.0012949,
        "meta_mean_motion_dot": 0.00051755,
        "meta_mean_motion_ddot": 0,
        "tle_line1": "1 66387U 25257H   25343.12603713  .00051755  00000+0  12949-2 0  9990",
        "tle_line2": "2 66387  53.1594 281.5253 0001038  87.1065 273.0059 15.39623681  5818"
      },
      "geometry": {
        "type": "Point",
        "coordinates": [
          55.256486374966215,
          43.29518837410221
        ]
      }
    },
    {
      "type": "Feature",
      "properties": {
        "norad_id": 66388,
        "name": "STARLINK-35647",
        "group": "last-30-days",
        "lat": 27.524306912265793,
        "lon": 77.1523589442576,
        "alt_km": 444.84876858364805,
        "timestamp": "2025-12-09T09:46:46.420329+00:00",
        "meta_object_name": "STARLINK-35647",
        "meta_object_id": "2025-257J",
        "meta_epoch": "2025-12-09T02:55:18.642720",
        "meta_mean_motion": 15.39514665,
        "meta_eccentricity": 0.0001077,
        "meta_inclination": 53.1581,
        "meta_ra_of_asc_node": 281.4976,
        "meta_arg_of_pericenter": 1.9018,
        "meta_mean_anomaly": 358.1991,
        "meta_ephemeris_type": 0,
        "meta_classification_type": "U",
        "meta_norad_cat_id": 66388,
        "meta_element_set_no": 999,
        "meta_rev_at_epoch": 581,
        "meta_bstar": 0.00049046,
        "meta_mean_motion_dot": 0.000192,
        "meta_mean_motion_ddot": 0,
        "tle_line1": "1 66388U 25257J   25343.12174355  .00019200  00000+0  49046-3 0  9994",
        "tle_line2": "2 66388  53.1581 281.4976 0001077   1.9018 358.1991 15.39514665  5812"
      },
      "geometry": {
        "type": "Point",
        "coordinates": [
          77.1523589442576,
          27.524306912265793
        ]
      }
    },
    {
      "type": "Feature",
      "properties": {
        "norad_id": 66389,
        "name": "STARLINK-35694",
        "group": "last-30-days",
        "lat": 5.9388206996244195,
        "lon": 95.62108699647453,
        "alt_km": 447.06703605527946,
        "timestamp": "2025-12-09T09:46:46.420340+00:00",
        "meta_object_name": "STARLINK-35694",
        "meta_object_id": "2025-257K",
        "meta_epoch": "2025-12-09T02:48:07.134336",
        "meta_mean_motion": 15.39618543,
        "meta_eccentricity": 8.85e-05,
        "meta_inclination": 53.1601,
        "meta_ra_of_asc_node": 281.4644,
        "meta_arg_of_pericenter": 95.9598,
        "meta_mean_anomaly": 264.1508,
        "meta_ephemeris_type": 0,
        "meta_classification_type": "U",
        "meta_norad_cat_id": 66389,
        "meta_element_set_no": 999,
        "meta_rev_at_epoch": 581,
        "meta_bstar": 0.001691,
        "meta_mean_motion_dot": 0.00067841,
        "meta_mean_motion_ddot": 0,
        "tle_line1": "1 66389U 25257K   25343.11674924  .00067841  00000+0  16910-2 0  9998",
        "tle_line2": "2 66389  53.1601 281.4644 0000885  95.9598 264.1508 15.39618543  5810"
      },
      "geometry": {
        "type": "Point",
        "coordinates": [
          95.62108699647453,
          5.9388206996244195
        ]
      }
    },
    {
      "type": "Feature",
      "properties": {
        "norad_id": 66390,
        "name": "STARLINK-35665",
        "group": "last-30-days",
        "lat": 15.35421953136424,
        "lon": -68.43978392467568,
        "alt_km": 416.71853190268575,
        "timestamp": "2025-12-09T09:46:46.420355+00:00",
        "meta_object_name": "STARLINK-35665",
        "meta_object_id": "2025-257L",
        "meta_epoch": "2025-12-09T03:30:13.836672",
        "meta_mean_motion": 15.49328138,
        "meta_eccentricity": 0.0001345,
        "meta_inclination": 53.1588,
        "meta_ra_of_asc_node": 280.9304,
        "meta_arg_of_pericenter": 68.4368,
        "meta_mean_anomaly": 291.6785,
        "meta_ephemeris_type": 0,
        "meta_classification_type": "U",
        "meta_norad_cat_id": 66390,
        "meta_element_set_no": 999,
        "meta_rev_at_epoch": 592,
        "meta_bstar": 0.00097328,
        "meta_mean_motion_dot": 0.00054094,
        "meta_mean_motion_ddot": 0,
        "tle_line1": "1 66390U 25257L   25343.14599348  .00054094  00000+0  97328-3 0  9998",
        "tle_line2": "2 66390  53.1588 280.9304 0001345  68.4368 291.6785 15.49328138  5928"
      },
      "geometry": {
        "type": "Point",
        "coordinates": [
          -68.43978392467568,
          15.35421953136424
        ]
      }
    },
    {
      "type": "Feature",
      "properties": {
        "norad_id": 66391,
        "name": "STARLINK-35656",
        "group": "last-30-days",
        "lat": 7.383888985285561,
        "lon": 94.50939987657023,
        "alt_km": 446.8083170151285,
        "timestamp": "2025-12-09T09:46:46.420366+00:00",
        "meta_object_name": "STARLINK-35656",
        "meta_object_id": "2025-257M",
        "meta_epoch": "2025-12-09T02:48:35.648064",
        "meta_mean_motion": 15.39625568,
        "meta_eccentricity": 0.0001147,
        "meta_inclination": 53.1595,
        "meta_ra_of_asc_node": 281.4538,
        "meta_arg_of_pericenter": 91.2559,
        "meta_mean_anomaly": 268.8577,
        "meta_ephemeris_type": 0,
        "meta_classification_type": "U",
        "meta_norad_cat_id": 66391,
        "meta_element_set_no": 999,
        "meta_rev_at_epoch": 591,
        "meta_bstar": 0.0020518,
        "meta_mean_motion_dot": 0.0008258,
        "meta_mean_motion_ddot": 0,
        "tle_line1": "1 66391U 25257M   25343.11707926  .00082580  00000+0  20518-2 0  9996",
        "tle_line2": "2 66391  53.1595 281.4538 0001147  91.2559 268.8577 15.39625568  5918"
      },
      "geometry": {
        "type": "Point",
        "coordinates": [
          94.50939987657023,
          7.383888985285561
        ]
      }
    },
    {
      "type": "Feature",
      "properties": {
        "norad_id": 66392,
        "name": "STARLINK-35671",
        "group": "last-30-days",
        "lat": 25.959828686573314,
        "lon": 78.73837113447112,
        "alt_km": 443.7128075669152,
        "timestamp": "2025-12-09T09:46:46.420377+00:00",
        "meta_object_name": "STARLINK-35671",
        "meta_object_id": "2025-257N",
        "meta_epoch": "2025-12-09T02:54:48.330144",
        "meta_mean_motion": 15.39651087,
        "meta_eccentricity": 0.0001062,
        "meta_inclination": 53.1605,
        "meta_ra_of_asc_node": 281.4947,
        "meta_arg_of_pericenter": 84.7676,
        "meta_mean_anomaly": 275.345,
        "meta_ephemeris_type": 0,
        "meta_classification_type": "U",
        "meta_norad_cat_id": 66392,
        "meta_element_set_no": 999,
        "meta_rev_at_epoch": 581,
        "meta_bstar": 0.001358,
        "meta_mean_motion_dot": 0.00054362,
        "meta_mean_motion_ddot": 0,
        "tle_line1": "1 66392U 25257N   25343.12139271  .00054362  00000+0  13580-2 0  9998",
        "tle_line2": "2 66392  53.1605 281.4947 0001062  84.7676 275.3450 15.39651087  5815"
      },
      "geometry": {
        "type": "Point",
        "coordinates": [
          78.73837113447112,
          25.959828686573314
        ]
      }
    },
    {
      "type": "Feature",
      "properties": {
        "norad_id": 66393,
        "name": "STARLINK-35652",
        "group": "last-30-days",
        "lat": -13.117681520725874,
        "lon": 110.10993967788107,
        "alt_km": 450.26748619275713,
        "timestamp": "2025-12-09T09:46:46.420388+00:00",
        "meta_object_name": "STARLINK-35652",
        "meta_object_id": "2025-257P",
        "meta_epoch": "2025-12-09T04:00:01.998720",
        "meta_mean_motion": 15.39571195,
        "meta_eccentricity": 0.0001292,
        "meta_inclination": 53.1588,
        "meta_ra_of_asc_node": 281.1827,
        "meta_arg_of_pericenter": 68.5659,
        "meta_mean_anomaly": 232.46,
        "meta_ephemeris_type": 0,
        "meta_classification_type": "U",
        "meta_norad_cat_id": 66393,
        "meta_element_set_no": 999,
        "meta_rev_at_epoch": 592,
        "meta_bstar": 0.0012703,
        "meta_mean_motion_dot": 0.00050669,
        "meta_mean_motion_ddot": 0,
        "tle_line1": "1 66393U 25257P   25343.16668980  .00050669  00000+0  12703-2 0  9999",
        "tle_line2": "2 66393  53.1588 281.1827 0001292  68.5659 232.4600 15.39571195  5920"
      },
      "geometry": {
        "type": "Point",
        "coordinates": [
          110.10993967788107,
          -13.117681520725874
        ]
      }
    }
  ]
}